{
  "links" : {
    "next" : "https://api.nasa.gov/neo/rest/v1/feed?start_date=1997-02-09&end_date=1997-02-09&detailed=true&api_key=t0TVs3DtDT2H8Oy2Zy8m2eVrNsAVKAexjcZXUckd",
    "prev" : "https://api.nasa.gov/neo/rest/v1/feed?start_date=1997-02-07&end_date=1997-02-07&detailed=true&api_key=t0TVs3DtDT2H8Oy2Zy8m2eVrNsAVKAexjcZXUckd",
    "self" : "https://api.nasa.gov/neo/rest/v1/feed?start_date=1997-02-08&end_date=1997-02-08&detailed=true&api_key=t0TVs3DtDT2H8Oy2Zy8m2eVrNsAVKAexjcZXUckd"
  },
  "element_count" : 3,
  "near_earth_objects" : {
    "1997-02-08" : [ {
      "links" : {
        "self" : "https://api.nasa.gov/neo/rest/v1/neo/3654067?api_key=t0TVs3DtDT2H8Oy2Zy8m2eVrNsAVKAexjcZXUckd"
      },
      "neo_reference_id" : "3654067",
      "name" : "(2013 WY67)",
      "nasa_jpl_url" : "http://ssd.jpl.nasa.gov/sbdb.cgi?sstr=3654067",
      "absolute_magnitude_h" : 19.3,
      "estimated_diameter" : {
        "kilometers" : {
          "estimated_diameter_min" : 0.3669061375,
          "estimated_diameter_max" : 0.8204270649
        },
        "meters" : {
          "estimated_diameter_min" : 366.9061375314,
          "estimated_diameter_max" : 820.4270648822
        },
        "miles" : {
          "estimated_diameter_min" : 0.2279848336,
          "estimated_diameter_max" : 0.5097895857
        },
        "feet" : {
          "estimated_diameter_min" : 1203.7603322587,
          "estimated_diameter_max" : 2691.6899315481
        }
      },
      "is_potentially_hazardous_asteroid" : false,
      "close_approach_data" : [ {
        "close_approach_date" : "1997-02-08",
        "epoch_date_close_approach" : 855388800000,
        "relative_velocity" : {
          "kilometers_per_second" : "15.1853763046",
          "kilometers_per_hour" : "54667.3546965748",
          "miles_per_hour" : "33968.1682557689"
        },
        "miss_distance" : {
          "astronomical" : "0.3833692159",
          "lunar" : "149.1306152344",
          "kilometers" : "57351216",
          "miles" : "35636396"
        },
        "orbiting_body" : "Earth"
      } ],
      "orbital_data" : {
        "orbit_id" : "18",
        "orbit_determination_date" : "2016-11-06 05:17:24",
        "orbit_uncertainty" : "0",
        "minimum_orbit_intersection" : ".133154",
        "jupiter_tisserand_invariant" : "4.762",
        "epoch_osculation" : "2457600.5",
        "eccentricity" : ".3727803953125012",
        "semi_major_axis" : "1.342834639464732",
        "inclination" : "19.82107328959423",
        "ascending_node_longitude" : "64.00500602434789",
        "orbital_period" : "568.3714182528106",
        "perihelion_distance" : ".842252211725749",
        "perihelion_argument" : "151.938517324002",
        "aphelion_distance" : "1.843417067203715",
        "perihelion_time" : "2457356.648451287097",
        "mean_anomaly" : "154.4528009633265",
        "mean_motion" : ".6333886406650249",
        "equinox" : "J2000"
      }
    }, {
      "links" : {
        "self" : "https://api.nasa.gov/neo/rest/v1/neo/3715994?api_key=t0TVs3DtDT2H8Oy2Zy8m2eVrNsAVKAexjcZXUckd"
      },
      "neo_reference_id" : "3715994",
      "name" : "(2015 HK)",
      "nasa_jpl_url" : "http://ssd.jpl.nasa.gov/sbdb.cgi?sstr=3715994",
      "absolute_magnitude_h" : 25.5,
      "estimated_diameter" : {
        "kilometers" : {
          "estimated_diameter_min" : 0.0211132445,
          "estimated_diameter_max" : 0.0472106499
        },
        "meters" : {
          "estimated_diameter_min" : 21.113244479,
          "estimated_diameter_max" : 47.2106498806
        },
        "miles" : {
          "estimated_diameter_min" : 0.0131191578,
          "estimated_diameter_max" : 0.0293353287
        },
        "feet" : {
          "estimated_diameter_min" : 69.2691770164,
          "estimated_diameter_max" : 154.8905885541
        }
      },
      "is_potentially_hazardous_asteroid" : false,
      "close_approach_data" : [ {
        "close_approach_date" : "1997-02-08",
        "epoch_date_close_approach" : 855388800000,
        "relative_velocity" : {
          "kilometers_per_second" : "11.7836650563",
          "kilometers_per_hour" : "42421.1942027581",
          "miles_per_hour" : "26358.880364486"
        },
        "miss_distance" : {
          "astronomical" : "0.2727503945",
          "lunar" : "106.0999069214",
          "kilometers" : "40802880",
          "miles" : "25353734"
        },
        "orbiting_body" : "Earth"
      } ],
      "orbital_data" : {
        "orbit_id" : "10",
        "orbit_determination_date" : "2017-04-06 08:34:22",
        "orbit_uncertainty" : "7",
        "minimum_orbit_intersection" : ".0289102",
        "jupiter_tisserand_invariant" : "6.740",
        "epoch_osculation" : "2458000.5",
        "eccentricity" : ".246289927331538",
        "semi_major_axis" : ".8723627316849258",
        "inclination" : "12.50196210229417",
        "ascending_node_longitude" : "33.60297861805537",
        "orbital_period" : "297.6076444853414",
        "perihelion_distance" : ".6575085778915035",
        "perihelion_argument" : "330.306840083346",
        "aphelion_distance" : "1.087216885478348",
        "perihelion_time" : "2458142.343120080274",
        "mean_anomaly" : "188.4199879435094",
        "mean_motion" : "1.209646347030349",
        "equinox" : "J2000"
      }
    }, {
      "links" : {
        "self" : "https://api.nasa.gov/neo/rest/v1/neo/2479345?api_key=t0TVs3DtDT2H8Oy2Zy8m2eVrNsAVKAexjcZXUckd"
      },
      "neo_reference_id" : "2479345",
      "name" : "479345 (2013 WY67)",
      "nasa_jpl_url" : "http://ssd.jpl.nasa.gov/sbdb.cgi?sstr=2479345",
      "absolute_magnitude_h" : 19.3,
      "estimated_diameter" : {
        "kilometers" : {
          "estimated_diameter_min" : 0.3669061375,
          "estimated_diameter_max" : 0.8204270649
        },
        "meters" : {
          "estimated_diameter_min" : 366.9061375314,
          "estimated_diameter_max" : 820.4270648822
        },
        "miles" : {
          "estimated_diameter_min" : 0.2279848336,
          "estimated_diameter_max" : 0.5097895857
        },
        "feet" : {
          "estimated_diameter_min" : 1203.7603322587,
          "estimated_diameter_max" : 2691.6899315481
        }
      },
      "is_potentially_hazardous_asteroid" : false,
      "close_approach_data" : [ {
        "close_approach_date" : "1997-02-08",
        "epoch_date_close_approach" : 855388800000,
        "relative_velocity" : {
          "kilometers_per_second" : "15.1853908371",
          "kilometers_per_hour" : "54667.4070136496",
          "miles_per_hour" : "33968.2007635647"
        },
        "miss_distance" : {
          "astronomical" : "0.3833694964",
          "lunar" : "149.1307373047",
          "kilometers" : "57351264",
          "miles" : "35636424"
        },
        "orbiting_body" : "Earth"
      } ],
      "orbital_data" : {
        "orbit_id" : "23",
        "orbit_determination_date" : "2017-04-06 09:18:57",
        "orbit_uncertainty" : "0",
        "minimum_orbit_intersection" : ".132537",
        "jupiter_tisserand_invariant" : "4.762",
        "epoch_osculation" : "2458000.5",
        "eccentricity" : ".3728372996603487",
        "semi_major_axis" : "1.342777366486634",
        "inclination" : "19.82219511515017",
        "ascending_node_longitude" : "64.00374941385198",
        "orbital_period" : "568.3350563929055",
        "perihelion_distance" : ".8421398791207232",
        "perihelion_argument" : "151.9419789845429",
        "aphelion_distance" : "1.843414853852546",
        "perihelion_time" : "2457925.010967431422",
        "mean_anomaly" : "47.81695483852142",
        "mean_motion" : ".6334291646284128",
        "equinox" : "J2000"
      }
    } ]
  }
}